QIANFAN-73              
1 63159U 25046A   25299.20389873  .00000032  00000+0  30478-4 0  9998
2 63159  88.9773 324.9471 0013007 259.6828 100.2857 13.50971846 40998
QIANFAN-74              
1 63160U 25046B   25299.33555265  .00000033  00000+0  32350-4 0  9996
2 63160  88.9773 324.8218 0002111  95.6652 264.4740 13.50973731 41074
QIANFAN-75              
1 63161U 25046C   25299.32307508  .00000110  00000+0  15195-3 0  9994
2 63161  88.9775 325.0560 0014110 262.8281  97.1266 13.50982520 40943
QIANFAN-76              
1 63162U 25046D   25299.31910166 -.00000110  00000+0 -18877-3 0  9996
2 63162  88.9773 325.0371 0011717 263.4288  96.5529 13.50972061 40951
QIANFAN-77              
1 63163U 25046E   25299.30940942  .00000141  00000+0  92797-4 0  9997
2 63163  88.9772 323.4347 0013290 222.1474 137.8681 13.96076783 41835
QIANFAN-78              
1 63164U 25046F   25299.21213684  .00000012  00000+0 -17755-6 0  9995
2 63164  88.9774 324.9129 0013033 266.4173  93.5487 13.50974058 41018
QIANFAN-79              
1 63165U 25046G   25299.31488768  .00000029  00000+0  27174-4 0  9995
2 63165  88.9777 325.0080 0012734 264.0438  95.9262 13.50973526 40975
QIANFAN-80              
1 63166U 25046H   25299.33145286  .00000067  00000+0  86028-4 0  9998
2 63166  88.9774 324.7143 0011682 269.0732  90.9080 13.50974721 41132
